ONEWEB-0018             
1 45434U 20020L   25014.85763864 -.00000473  00000+0 -13706-2 0  9997
2 45434  87.8910 124.3702 0001650 110.2272 249.9034 13.11414836234698
ONEWEB-0083             
1 45435U 20020M   25014.84746959 -.00000175  00000+0 -52835-3 0  9999
2 45435  87.8910 124.3556 0001705 106.7111 253.4205 13.11413402234732
ONEWEB-0095             
1 45436U 20020N   25015.29691436  .00000418  00000+0  11437-2 0  9999
2 45436  87.8907 124.2960 0002220  90.3100 269.8283 13.11413982234804
ONEWEB-0092             
1 45437U 20020P   25014.81102049  .00000260  00000+0  69781-3 0  9995
2 45437  87.8910 124.3791 0001739  97.3841 262.7485 13.11418751234844
ONEWEB-0085             
1 45438U 20020Q   25014.84069227  .00000146  00000+0  37736-3 0  9997
2 45438  87.8911 124.3818 0001625 108.6367 251.4937 13.11413464234730
ONEWEB-0096             
1 45439U 20020R   25015.38323877 -.00000010  00000+0 -64737-4 0  9996
2 45439  87.8908 124.2418 0001403 111.6264 248.5013 13.11413939234803
ONEWEB-0037             
1 45440U 20020S   25015.28830282  .00000621  00000+0  17163-2 0  9995
2 45440  87.8905 124.2319 0001663 101.8007 258.3308 13.11416032234821
ONEWEB-0042             
1 45441U 20020T   25014.83885515  .00000247  00000+0  66186-3 0  9999
2 45441  87.8910 124.3619 0001563 107.8260 252.3039 13.11413228234726
